{
  "type": "FeatureCollection",
  "features": [
    {
      "type": "Feature",
      "properties": {
        "norad_id": 44333,
        "name": "AT&T T-16",
        "group": "intelsat",
        "lat": 0.020649772898431833,
        "lon": 147.32522042078844,
        "alt_km": 35782.18369153346,
        "timestamp": "2025-12-15T10:55:20.797897+00:00",
        "meta_object_name": "AT&T T-16",
        "meta_object_id": "2019-034A",
        "meta_epoch": "2025-12-14T21:29:59.762112",
        "meta_mean_motion": 1.00270833,
        "meta_eccentricity": 9.964e-05,
        "meta_inclination": 0.0252,
        "meta_ra_of_asc_node": 69.3394,
        "meta_arg_of_pericenter": 81.8643,
        "meta_mean_anomaly": 154.2461,
        "meta_ephemeris_type": 0,
        "meta_classification_type": "U",
        "meta_norad_cat_id": 44333,
        "meta_element_set_no": 999,
        "meta_rev_at_epoch": 2378,
        "meta_bstar": 0,
        "meta_mean_motion_dot": -9.5e-07,
        "meta_mean_motion_ddot": 0,
        "tle_line1": "1 44333U 19034A   25348.89583058 -.00000095  00000+0  00000+0 0  9995",
        "tle_line2": "2 44333   0.0252  69.3394 0000996  81.8643 154.2461  1.00270833 23783"
      },
      "geometry": {
        "type": "Point",
        "coordinates": [
          147.32522042078844,
          0.020649772898431833
        ]
      }
    },
    {
      "type": "Feature",
      "properties": {
        "norad_id": 44476,
        "name": "INTELSAT 39 (IS-39)",
        "group": "intelsat",
        "lat": -0.015346483234149765,
        "lon": -49.869983078263154,
        "alt_km": 35791.450290651075,
        "timestamp": "2025-12-15T10:55:20.797908+00:00",
        "meta_object_name": "INTELSAT 39 (IS-39)",
        "meta_object_id": "2019-049B",
        "meta_epoch": "2025-12-14T22:42:38.818368",
        "meta_mean_motion": 1.00270878,
        "meta_eccentricity": 0.00012415,
        "meta_inclination": 0.0196,
        "meta_ra_of_asc_node": 330.0545,
        "meta_arg_of_pericenter": 169.955,
        "meta_mean_anomaly": 346.4542,
        "meta_ephemeris_type": 0,
        "meta_classification_type": "U",
        "meta_norad_cat_id": 44476,
        "meta_element_set_no": 999,
        "meta_rev_at_epoch": 2328,
        "meta_bstar": 0,
        "meta_mean_motion_dot": 5.4e-07,
        "meta_mean_motion_ddot": 0,
        "tle_line1": "1 44476U 19049B   25348.94628262  .00000054  00000+0  00000+0 0  9996",
        "tle_line2": "2 44476   0.0196 330.0545 0001241 169.9550 346.4542  1.00270878 23282"
      },
      "geometry": {
        "type": "Point",
        "coordinates": [
          -49.869983078263154,
          -0.015346483234149765
        ]
      }
    },
    {
      "type": "Feature",
      "properties": {
        "norad_id": 46114,
        "name": "GALAXY 30 (G-30)",
        "group": "intelsat",
        "lat": 0.02766998278609579,
        "lon": 123.17421535539398,
        "alt_km": 35792.872278041716,
        "timestamp": "2025-12-15T10:55:20.797919+00:00",
        "meta_object_name": "GALAXY 30 (G-30)",
        "meta_object_id": "2020-056C",
        "meta_epoch": "2025-12-14T16:14:52.443168",
        "meta_mean_motion": 1.00271715,
        "meta_eccentricity": 0.00021307,
        "meta_inclination": 0.0181,
        "meta_ra_of_asc_node": 355.3137,
        "meta_arg_of_pericenter": 267.0636,
        "meta_mean_anomaly": 299.9386,
        "meta_ephemeris_type": 0,
        "meta_classification_type": "U",
        "meta_norad_cat_id": 46114,
        "meta_element_set_no": 999,
        "meta_rev_at_epoch": 1944,
        "meta_bstar": 0,
        "meta_mean_motion_dot": 5.6e-07,
        "meta_mean_motion_ddot": 0,
        "tle_line1": "1 46114U 20056C   25348.67699587  .00000056  00000+0  00000+0 0  9997",
        "tle_line2": "2 46114   0.0181 355.3137 0002130 267.0636 299.9386  1.00271715 19449"
      },
      "geometry": {
        "type": "Point",
        "coordinates": [
          123.17421535539398,
          0.02766998278609579
        ]
      }
    },
    {
      "type": "Feature",
      "properties": {
        "norad_id": 54026,
        "name": "GALAXY 33 (G-33)",
        "group": "intelsat",
        "lat": 0.01901140474621829,
        "lon": 115.17671550873376,
        "alt_km": 35791.967355096356,
        "timestamp": "2025-12-15T10:55:20.797931+00:00",
        "meta_object_name": "GALAXY 33 (G-33)",
        "meta_object_id": "2022-128A",
        "meta_epoch": "2025-12-14T16:12:37.658304",
        "meta_mean_motion": 1.00272574,
        "meta_eccentricity": 0.00018603,
        "meta_inclination": 0.0104,
        "meta_ra_of_asc_node": 328.9478,
        "meta_arg_of_pericenter": 287.8681,
        "meta_mean_anomaly": 296.9341,
        "meta_ephemeris_type": 0,
        "meta_classification_type": "U",
        "meta_norad_cat_id": 54026,
        "meta_element_set_no": 999,
        "meta_rev_at_epoch": 1189,
        "meta_bstar": 0,
        "meta_mean_motion_dot": 9.8e-07,
        "meta_mean_motion_ddot": 0,
        "tle_line1": "1 54026U 22128A   25348.67543586  .00000098  00000+0  00000+0 0  9993",
        "tle_line2": "2 54026   0.0104 328.9478 0001860 287.8681 296.9341  1.00272574 11891"
      },
      "geometry": {
        "type": "Point",
        "coordinates": [
          115.17671550873376,
          0.01901140474621829
        ]
      }
    },
    {
      "type": "Feature",
      "properties": {
        "norad_id": 54027,
        "name": "GALAXY 34 (G-34)",
        "group": "intelsat",
        "lat": 0.022654585005244077,
        "lon": 119.22840427732645,
        "alt_km": 35790.87703180445,
        "timestamp": "2025-12-15T10:55:20.797942+00:00",
        "meta_object_name": "GALAXY 34 (G-34)",
        "meta_object_id": "2022-128B",
        "meta_epoch": "2025-12-14T16:13:45.050304",
        "meta_mean_motion": 1.00267036,
        "meta_eccentricity": 0.0001377,
        "meta_inclination": 0.0264,
        "meta_ra_of_asc_node": 324.1317,
        "meta_arg_of_pericenter": 282.2143,
        "meta_mean_anomaly": 311.7522,
        "meta_ephemeris_type": 0,
        "meta_classification_type": "U",
        "meta_norad_cat_id": 54027,
        "meta_element_set_no": 999,
        "meta_rev_at_epoch": 1206,
        "meta_bstar": 0,
        "meta_mean_motion_dot": 0,
        "meta_mean_motion_ddot": 0,
        "tle_line1": "1 54027U 22128B   25348.67621586  .00000000  00000+0  00000+0 0  9994",
        "tle_line2": "2 54027   0.0264 324.1317 0001377 282.2143 311.7522  1.00267036 12068"
      },
      "geometry": {
        "type": "Point",
        "coordinates": [
          119.22840427732645,
          0.022654585005244077
        ]
      }
    },
    {
      "type": "Feature",
      "properties": {
        "norad_id": 54243,
        "name": "GALAXY 31 (G-31)",
        "group": "intelsat",
        "lat": 0.02158866885398169,
        "lon": 127.1671209753451,
        "alt_km": 35791.79427029419,
        "timestamp": "2025-12-15T10:55:20.797954+00:00",
        "meta_object_name": "GALAXY 31 (G-31)",
        "meta_object_id": "2022-153A",
        "meta_epoch": "2025-12-14T21:24:15.312096",
        "meta_mean_motion": 1.00271102,
        "meta_eccentricity": 0.00014922,
        "meta_inclination": 0.013,
        "meta_ra_of_asc_node": 353.12,
        "meta_arg_of_pericenter": 285.8278,
        "meta_mean_anomaly": 4.9116,
        "meta_ephemeris_type": 0,
        "meta_classification_type": "U",
        "meta_norad_cat_id": 54243,
        "meta_element_set_no": 999,
        "meta_rev_at_epoch": 528,
        "meta_bstar": 0,
        "meta_mean_motion_dot": 0,
        "meta_mean_motion_ddot": 0,
        "tle_line1": "1 54243U 22153A   25348.89184389  .00000000  00000+0  00000+0 0  9991",
        "tle_line2": "2 54243   0.0130 353.1200 0001492 285.8278   4.9116  1.00271102  5284"
      },
      "geometry": {
        "type": "Point",
        "coordinates": [
          127.1671209753451,
          0.02158866885398169
        ]
      }
    },
    {
      "type": "Feature",
      "properties": {
        "norad_id": 54244,
        "name": "GALAXY 32 (G-32)",
        "group": "intelsat",
        "lat": -0.0021544881775243815,
        "lon": 157.17462179860127,
        "alt_km": 35796.29689111792,
        "timestamp": "2025-12-15T10:55:20.797965+00:00",
        "meta_object_name": "GALAXY 32 (G-32)",
        "meta_object_id": "2022-153B",
        "meta_epoch": "2025-12-14T11:16:28.521120",
        "meta_mean_motion": 1.00271615,
        "meta_eccentricity": 0.00025826,
        "meta_inclination": 0.0101,
        "meta_ra_of_asc_node": 332.4414,
        "meta_arg_of_pericenter": 343.5961,
        "meta_mean_anomaly": 205.4705,
        "meta_ephemeris_type": 0,
        "meta_classification_type": "U",
        "meta_norad_cat_id": 54244,
        "meta_element_set_no": 999,
        "meta_rev_at_epoch": 1129,
        "meta_bstar": 0,
        "meta_mean_motion_dot": -1.56e-06,
        "meta_mean_motion_ddot": 0,
        "tle_line1": "1 54244U 22153B   25348.46977455 -.00000156  00000+0  00000+0 0  9992",
        "tle_line2": "2 54244   0.0101 332.4414 0002582 343.5961 205.4705  1.00271615 11291"
      },
      "geometry": {
        "type": "Point",
        "coordinates": [
          157.17462179860127,
          -0.0021544881775243815
        ]
      }
    }
  ]
}